{
  "norad_id": 64532,
  "name": "TRANSPORTER-14 OBJECT E",
  "history": [
    {
      "epoch": "2026-03-28T20:02:55.090176",
      "apogee_km": 496.54323021838627,
      "perigee_km": 488.5826998249131,
      "latitude_deg": -21.135602226834358,
      "longitude_deg": -6.6054553599096835,
      "semi_major_axis_km": 6870.699965021649,
      "eccentricity": 0.00057931,
      "inclination_deg": 97.4621,
      "raan_deg": 204.2223,
      "arg_perigee_deg": 93.6254,
      "mean_anomaly_deg": 266.5646,
      "mean_motion_rev_day": 15.24408235
    },
    {
      "epoch": "2026-03-29T00:46:29.241696",
      "apogee_km": 496.51079677418875,
      "perigee_km": 488.57378805559256,
      "latitude_deg": 20.379247679838503,
      "longitude_deg": 12.299157439731061,
      "semi_major_axis_km": 6870.67929241489,
      "eccentricity": 0.0005776,
      "inclination_deg": 97.4622,
      "raan_deg": 204.4185,
      "arg_perigee_deg": 93.1331,
      "mean_anomaly_deg": 267.0568,
      "mean_motion_rev_day": 15.24415115
    }
  ]
}